NORAD_CAT_ID,OBJECT_NAME,OBJECT_TYPE,EPOCH,MEAN_MOTION,ECCENTRICITY,INCLINATION,RA_OF_ASC_NODE,ARG_OF_PERICENTER,MEAN_ANOMALY,BSTAR,MEAN_MOTION_DOT,MEAN_MOTION_DDOT,TLE_LINE0,TLE_LINE1,TLE_LINE2,SEMIMAJOR_AXIS,PERIOD,APOGEE,PERIGEE,DECAYED
53388.0,STARLINK-4522,PAYLOAD,2023-09-11 07:40:37,15.08840997,0.0001416,53.2149,250.9286,94.0445,266.0709,7.8306e-05,9.59e-06,0.0,0 STARLINK-4522,1 53388U 22097A   23254.31987954  .00000959  00000-0  78306-4 0  9990,2 53388  53.2149 250.9286 0001416  94.0445 266.0709 15.08840997 60583,6917.877,95.437,540.722,538.763,0.0
53388.0,STARLINK-4522,PAYLOAD,2023-09-11 12:26:46,15.08842381,0.0001434,53.215,250.0365,91.9082,268.2075,0.00010699,1.415e-05,0.0,0 STARLINK-4522,1 53388U 22097A   23254.51859925  .00001415  00000-0  10699-3 0  9996,2 53388  53.2150 250.0365 0001434  91.9082 268.2075 15.08842381 61442,6917.873,95.437,540.73,538.746,0.0
53388.0,STARLINK-4522,PAYLOAD,2023-09-12 10:42:10,15.08850909,0.0001428,53.2164,245.8729,97.4181,262.6974,0.00014295,1.988e-05,0.0,0 STARLINK-4522,1 53388U 22097A   23255.44595336  .00001988  00000-0  14295-3 0  9993,2 53388  53.2164 245.8729 0001428  97.4181 262.6974 15.08850909 61583,6917.847,95.437,540.7,538.724,0.0
53388.0,STARLINK-4522,PAYLOAD,2023-09-12 17:03:43,15.0884905,0.0001392,53.2164,244.6852,91.5344,268.5808,9.8169e-05,1.275e-05,0.0,0 STARLINK-4522,1 53388U 22097A   23255.71091569  .00001275  00000-0  98169-4 0  9994,2 53388  53.2164 244.6852 0001392  91.5344 268.5808 15.08849050 61624,6917.853,95.437,540.681,538.755,0.0
53388.0,STARLINK-4522,PAYLOAD,2023-09-13 02:36:02,15.08843938,0.0001433,53.2161,242.9007,97.3856,262.7299,0.00017791,2.545e-05,0.0,0 STARLINK-4522,1 53388U 22097A   23256.10835948  .00002545  00000-0  17791-3 0  9997,2 53388  53.2161 242.9007 0001433  97.3856 262.7299 15.08843938 60855,6917.868,95.437,540.725,538.742,0.0
53388.0,STARLINK-4522,PAYLOAD,2023-09-13 10:32:57,15.0885548,0.0001461,53.2159,241.4133,98.2098,261.906,0.00027367,4.072e-05,0.0,0 STARLINK-4522,1 53388U 22097A   23256.43955273  .00004072  00000-0  27367-3 0  9994,2 53388  53.2159 241.4133 0001461  98.2098 261.9060 15.08855480 61735,6917.833,95.437,540.709,538.687,0.0
53388.0,STARLINK-4522,PAYLOAD,2023-09-14 02:26:49,15.08830329,0.0001522,53.2154,238.4407,96.4833,263.6333,-9.876e-05,-1.859e-05,0.0,0 STARLINK-4522,1 53388U 22097A   23257.10196670 -.00001859  00000-0 -98760-4 0  9995,2 53388  53.2154 238.4407 0001522  96.4833 263.6333 15.08830329 61002,6917.91,95.438,540.828,538.722,0.0
53388.0,STARLINK-4522,PAYLOAD,2023-09-14 05:37:36,15.0883116,0.0001527,53.2158,237.8459,96.0193,264.0973,-5.7563e-05,-1.204e-05,0.0,0 STARLINK-4522,1 53388U 22097A   23257.23444741 -.00001204  00000-0 -57563-4 0  9994,2 53388  53.2158 237.8459 0001527  96.0193 264.0973 15.08831160 61858,6917.907,95.438,540.829,538.716,0.0
53388.0,STARLINK-4522,PAYLOAD,2023-09-15 05:28:23,15.08850662,0.0001481,53.2163,233.3863,90.5015,269.6147,0.00075831,0.00011805,0.0,0 STARLINK-4522,1 53388U 22097A   23258.22804779  .00011805  00000-0  75831-3 0  9998,2 53388  53.2163 233.3863 0001481  90.5015 269.6147 15.08850662 61172,6917.848,95.437,540.737,538.688,0.0
53388.0,STARLINK-4522,PAYLOAD,2023-09-15 10:14:32,15.0885743,0.0001463,53.216,232.4936,90.4647,269.6513,0.00077917,0.0001214,0.0,0 STARLINK-4522,1 53388U 22097A   23258.42676517  .00012140  00000-0  77917-3 0  9997,2 53388  53.2160 232.4936 0001463  90.4647 269.6513 15.08857430 62033,6917.827,95.436,540.704,538.68,0.0
53388.0,STARLINK-4522,PAYLOAD,2023-09-16 02:08:23,15.08849475,0.0001872,53.2147,229.5171,118.1212,241.997,0.00017918,2.565e-05,0.0,0 STARLINK-4522,1 53388U 22097A   23259.08916320  .00002565  00000-0  17918-3 0  9994,2 53388  53.2147 229.5171 0001872 118.1212 241.9970 15.08849475 61305,6917.851,95.437,541.011,538.421,0.0
53388.0,STARLINK-4522,PAYLOAD,2023-09-16 08:29:56,15.08858032,0.0001449,53.2161,228.3301,98.4328,261.6829,0.0007221,0.00011229,0.0,0 STARLINK-4522,1 53388U 22097A   23259.35412248  .00011229  00000-0  72210-3 0  9997,2 53388  53.2161 228.3301 0001449  98.4328 261.6829 15.08858032 62178,6917.825,95.436,540.693,538.688,0.0
53388.0,STARLINK-4522,PAYLOAD,2023-09-17 01:59:11,15.08837799,0.0001528,53.2161,225.0587,106.1989,253.9172,0.00054603,8.412e-05,0.0,0 STARLINK-4522,1 53388U 22097A   23260.08276783  .00008412  00000-0  54603-3 0  9997,2 53388  53.2161 225.0587 0001528 106.1989 253.9172 15.08837799 61458,6917.887,95.438,540.809,538.695,0.0
53388.0,STARLINK-4522,PAYLOAD,2023-09-17 09:56:06,15.08845637,0.0001439,53.2157,223.5715,107.7178,252.3972,0.00091451,0.00014299,0.0,0 STARLINK-4522,1 53388U 22097A   23260.41396877  .00014299  00000-0  91451-3 0  9993,2 53388  53.2157 223.5715 0001439 107.7178 252.3972 15.08845637 62336,6917.863,95.437,540.724,538.733,0.0
53388.0,STARLINK-4522,PAYLOAD,2023-09-18 01:49:58,15.08845832,0.0001467,53.2159,220.5974,100.4723,259.6435,0.00056067,8.648e-05,0.0,0 STARLINK-4522,1 53388U 22097A   23261.07636964  .00008648  00000-0  56067-3 0  9995,2 53388  53.2159 220.5974 0001467 100.4723 259.6435 15.08845832 61609,6917.863,95.437,540.742,538.713,0.0
53388.0,STARLINK-4522,PAYLOAD,2023-09-18 09:46:53,15.08855188,0.0001458,53.2158,219.1099,97.8377,262.2781,0.00063783,9.882e-05,0.0,0 STARLINK-4522,1 53388U 22097A   23261.40756623  .00009882  00000-0  63783-3 0  9991,2 53388  53.2158 219.1099 0001458  97.8377 262.2781 15.08855188 62480,6917.834,95.437,540.708,538.69,0.0
53388.0,STARLINK-4522,PAYLOAD,2023-09-18 20:54:36,15.08840239,0.0001631,53.2164,217.0284,86.0381,274.0798,0.00019136,2.759e-05,0.0,0 STARLINK-4522,1 53388U 22097A   23261.87125190  .00002759  00000-0  19136-3 0  9990,2 53388  53.2164 217.0284 0001631  86.0381 274.0798 15.08840239 62556,6917.88,95.438,540.873,538.616,0.0
53388.0,STARLINK-4522,PAYLOAD,2023-09-19 03:16:08,15.08849459,0.0001432,53.2156,215.8402,92.4014,267.7142,0.00040254,6.126e-05,0.0,0 STARLINK-4522,1 53388U 22097A   23262.13620791  .00006126  00000-0  40254-3 0  9994,2 53388  53.2156 215.8402 0001432  92.4014 267.7142 15.08849459 61765,6917.851,95.437,540.707,538.726,0.0
53388.0,STARLINK-4522,PAYLOAD,2023-09-20 03:06:55,15.08843004,0.0001566,53.2156,211.3792,98.9464,261.1705,0.00043214,6.597e-05,0.0,0 STARLINK-4522,1 53388U 22097A   23263.12980897  .00006597  00000-0  43214-3 0  9991,2 53388  53.2156 211.3792 0001566  98.9464 261.1705 15.08843004 61916,6917.871,95.437,540.82,538.653,0.0
53388.0,STARLINK-4522,PAYLOAD,2023-09-20 14:14:38,15.08825627,0.0001702,53.2168,209.298,95.8445,264.2741,-0.00014418,-2.581e-05,0.0,0 STARLINK-4522,1 53388U 22097A   23263.59349649 -.00002581  00000-0 -14418-3 0  9991,2 53388  53.2168 209.2980 0001702  95.8445 264.2741 15.08825627 62816,6917.924,95.438,540.967,538.612,0.0
53388.0,STARLINK-4522,PAYLOAD,2023-09-21 06:08:29,15.08828357,0.0001397,53.2165,206.3236,108.9904,251.124,0.00029676,4.437e-05,0.0,0 STARLINK-4522,1 53388U 22097A   23264.25590079  .00004437  00000-0  29676-3 0  9992,2 53388  53.2165 206.3236 0001397 108.9904 251.1240 15.08828357 62914,6917.916,95.438,540.747,538.815,0.0
53388.0,STARLINK-4522,PAYLOAD,2023-09-22 02:48:30,15.08853887,0.0001237,53.2168,202.4609,97.0679,263.0453,0.00088284,0.00013796,0.0,0 STARLINK-4522,1 53388U 22097A   23265.11702024  .00013796  00000-0  88284-3 0  9991,2 53388  53.2168 202.4609 0001237  97.0679 263.0453 15.08853887 62215,6917.838,95.437,540.559,538.847,0.0
53388.0,STARLINK-4522,PAYLOAD,2023-09-22 05:59:16,15.08862595,0.0001171,53.2163,201.8647,92.9722,267.1404,0.0010596,0.00016626,0.0,0 STARLINK-4522,1 53388U 22097A   23265.24949804  .00016626  00000-0  10596-2 0  9999,2 53388  53.2163 201.8647 0001171  92.9722 267.1404 15.08862595 63066,6917.811,95.436,540.486,538.866,0.0
53388.0,STARLINK-4522,PAYLOAD,2023-09-23 02:39:16,15.08876628,0.0001074,53.2161,197.9996,81.4746,278.6368,0.0012981,0.00020452,0.0,0 STARLINK-4522,1 53388U 22097A   23266.11061102  .00020452  00000-0  12981-2 0  9994,2 53388  53.2161 197.9996 0001074  81.4746 278.6368 15.08876628 62367,6917.768,95.435,540.376,538.89,0.0
53388.0,STARLINK-4522,PAYLOAD,2023-09-24 04:05:27,15.08839435,0.0001256,53.2157,193.242,77.2499,282.8633,0.00066974,0.00010387,0.0,0 STARLINK-4522,1 53388U 22097A   23267.17045906  .00010387  00000-0  66974-3 0  9993,2 53388  53.2157 193.2420 0001256  77.2499 282.8633 15.08839435 62528,6917.882,95.438,540.616,538.878,0.0
53388.0,STARLINK-4522,PAYLOAD,2023-09-24 21:34:42,15.08838492,0.0001338,53.2156,189.971,93.278,266.8365,0.0003344,5.038e-05,0.0,0 STARLINK-4522,1 53388U 22097A   23267.89910153  .00005038  00000-0  33440-3 0  9996,2 53388  53.2156 189.9710 0001338  93.2780 266.8365 15.08838492 63463,6917.885,95.438,540.676,538.824,0.0
53388.0,STARLINK-4522,PAYLOAD,2023-09-25 02:20:51,15.08848249,0.0001392,53.2155,189.0782,96.9417,263.1733,0.00060159,9.301e-05,0.0,0 STARLINK-4522,1 53388U 22097A   23268.09781958  .00009301  00000-0  60159-3 0  9992,2 53388  53.2155 189.0782 0001392  96.9417 263.1733 15.08848249 62660,6917.855,95.437,540.683,538.757,0.0
53388.0,STARLINK-4522,PAYLOAD,2023-09-25 03:56:14,15.08858911,0.0001402,53.2156,188.7805,94.2428,265.8724,0.00094765,0.00014834,0.0,0 STARLINK-4522,1 53388U 22097A   23268.16405820  .00014834  00000-0  94765-3 0  9998,2 53388  53.2156 188.7805 0001402  94.2428 265.8724 15.08858911 62675,6917.823,95.436,540.657,538.718,0.0
53388.0,STARLINK-4522,PAYLOAD,2023-09-25 11:53:10,15.08863207,0.0001529,53.2159,187.2941,77.535,282.5813,0.00089226,0.0001395,0.0,0 STARLINK-4522,1 53388U 22097A   23268.49525598  .00013950  00000-0  89226-3 0  9993,2 53388  53.2159 187.2941 0001529  77.5350 282.5813 15.08863207 63558,6917.809,95.436,540.732,538.617,0.0
53388.0,STARLINK-4522,PAYLOAD,2023-09-26 02:11:37,15.08872143,0.0001416,53.2156,184.6178,84.1159,275.9994,0.00085307,0.00013327,0.0,0 STARLINK-4522,1 53388U 22097A   23269.09140572  .00013327  00000-0  85307-3 0  9999,2 53388  53.2156 184.6178 0001416  84.1159 275.9994 15.08872143 62817,6917.782,95.436,540.627,538.668,0.0
